{
  "type": "FeatureCollection",
  "features": [
    {
      "type": "Feature",
      "properties": {
        "norad_id": 66595,
        "name": "STARLINK-35711",
        "group": "last-30-days",
        "lat": -29.92530091208817,
        "lon": 103.1364477206512,
        "alt_km": 345.4111053719889,
        "timestamp": "2025-12-03T22:42:31.476846+00:00",
        "meta_object_name": "STARLINK-35711",
        "meta_object_id": "2025-270H",
        "meta_epoch": "2025-12-03T08:00:01.999008",
        "meta_mean_motion": 15.77519386,
        "meta_eccentricity": 0.0001794,
        "meta_inclination": 42.9989,
        "meta_ra_of_asc_node": 248.7112,
        "meta_arg_of_pericenter": 269.6847,
        "meta_mean_anomaly": 75.1247,
        "meta_ephemeris_type": 0,
        "meta_classification_type": "U",
        "meta_norad_cat_id": 66595,
        "meta_element_set_no": 999,
        "meta_rev_at_epoch": 299,
        "meta_bstar": -0.01092,
        "meta_mean_motion_dot": -0.01661351,
        "meta_mean_motion_ddot": 0,
        "tle_line1": "1 66595U 25270H   25337.33335647 -.01661351  00000+0 -10920-1 0  9998",
        "tle_line2": "2 66595  42.9989 248.7112 0001794 269.6847  75.1247 15.77519386  2990"
      },
      "geometry": {
        "type": "Point",
        "coordinates": [
          103.1364477206512,
          -29.92530091208817
        ]
      }
    },
    {
      "type": "Feature",
      "properties": {
        "norad_id": 66596,
        "name": "STARLINK-35811",
        "group": "last-30-days",
        "lat": -30.944031946094906,
        "lon": 105.02700357785923,
        "alt_km": 345.74427027459114,
        "timestamp": "2025-12-03T22:42:31.476872+00:00",
        "meta_object_name": "STARLINK-35811",
        "meta_object_id": "2025-270J",
        "meta_epoch": "2025-12-03T08:00:01.999008",
        "meta_mean_motion": 15.77481419,
        "meta_eccentricity": 0.0001709,
        "meta_inclination": 42.9988,
        "meta_ra_of_asc_node": 248.7061,
        "meta_arg_of_pericenter": 274.7998,
        "meta_mean_anomaly": 72.0379,
        "meta_ephemeris_type": 0,
        "meta_classification_type": "U",
        "meta_norad_cat_id": 66596,
        "meta_element_set_no": 999,
        "meta_rev_at_epoch": 299,
        "meta_bstar": -0.011012,
        "meta_mean_motion_dot": -0.01671161,
        "meta_mean_motion_ddot": 0,
        "tle_line1": "1 66596U 25270J   25337.33335647 -.01671161  00000+0 -11012-1 0  9992",
        "tle_line2": "2 66596  42.9988 248.7061 0001709 274.7998  72.0379 15.77481419  2990"
      },
      "geometry": {
        "type": "Point",
        "coordinates": [
          105.02700357785923,
          -30.944031946094906
        ]
      }
    },
    {
      "type": "Feature",
      "properties": {
        "norad_id": 66597,
        "name": "STARLINK-35820",
        "group": "last-30-days",
        "lat": -31.93160668936185,
        "lon": 106.95200598506749,
        "alt_km": 345.6865350251737,
        "timestamp": "2025-12-03T22:42:31.476881+00:00",
        "meta_object_name": "STARLINK-35820",
        "meta_object_id": "2025-270K",
        "meta_epoch": "2025-12-03T08:00:01.999008",
        "meta_mean_motion": 15.7746612,
        "meta_eccentricity": 0.0001765,
        "meta_inclination": 42.9989,
        "meta_ra_of_asc_node": 248.7015,
        "meta_arg_of_pericenter": 269.627,
        "meta_mean_anomaly": 79.1738,
        "meta_ephemeris_type": 0,
        "meta_classification_type": "U",
        "meta_norad_cat_id": 66597,
        "meta_element_set_no": 999,
        "meta_rev_at_epoch": 299,
        "meta_bstar": -0.011062,
        "meta_mean_motion_dot": -0.01676847,
        "meta_mean_motion_ddot": 0,
        "tle_line1": "1 66597U 25270K   25337.33335647 -.01676847  00000+0 -11062-1 0  9994",
        "tle_line2": "2 66597  42.9989 248.7015 0001765 269.6270  79.1738 15.77466120  2998"
      },
      "geometry": {
        "type": "Point",
        "coordinates": [
          106.95200598506749,
          -31.93160668936185
        ]
      }
    },
    {
      "type": "Feature",
      "properties": {
        "norad_id": 66598,
        "name": "STARLINK-35981",
        "group": "last-30-days",
        "lat": -32.89306929670793,
        "lon": 108.92575188577364,
        "alt_km": 345.7959413863164,
        "timestamp": "2025-12-03T22:42:31.476892+00:00",
        "meta_object_name": "STARLINK-35981",
        "meta_object_id": "2025-270L",
        "meta_epoch": "2025-12-03T08:00:01.999008",
        "meta_mean_motion": 15.77429273,
        "meta_eccentricity": 0.0001708,
        "meta_inclination": 42.9987,
        "meta_ra_of_asc_node": 248.6959,
        "meta_arg_of_pericenter": 264.417,
        "meta_mean_anomaly": 86.414,
        "meta_ephemeris_type": 0,
        "meta_classification_type": "U",
        "meta_norad_cat_id": 66598,
        "meta_element_set_no": 999,
        "meta_rev_at_epoch": 273,
        "meta_bstar": -0.011182,
        "meta_mean_motion_dot": -0.01690393,
        "meta_mean_motion_ddot": 0,
        "tle_line1": "1 66598U 25270L   25337.33335647 -.01690393  00000+0 -11182-1 0  9990",
        "tle_line2": "2 66598  42.9987 248.6959 0001708 264.4170  86.4140 15.77429273  2730"
      },
      "geometry": {
        "type": "Point",
        "coordinates": [
          108.92575188577364,
          -32.89306929670793
        ]
      }
    },
    {
      "type": "Feature",
      "properties": {
        "norad_id": 66599,
        "name": "STARLINK-35930",
        "group": "last-30-days",
        "lat": -35.17589393881641,
        "lon": 114.10583823920447,
        "alt_km": 340.5433619801752,
        "timestamp": "2025-12-03T22:42:31.476902+00:00",
        "meta_object_name": "STARLINK-35930",
        "meta_object_id": "2025-270M",
        "meta_epoch": "2025-12-03T11:04:17.203872",
        "meta_mean_motion": 15.7770827,
        "meta_eccentricity": 0.0003826,
        "meta_inclination": 42.998,
        "meta_ra_of_asc_node": 247.9123,
        "meta_arg_of_pericenter": 352.3855,
        "meta_mean_anomaly": 7.6956,
        "meta_ephemeris_type": 0,
        "meta_classification_type": "U",
        "meta_norad_cat_id": 66599,
        "meta_element_set_no": 999,
        "meta_rev_at_epoch": 289,
        "meta_bstar": 0.0011537,
        "meta_mean_motion_dot": 0.00203832,
        "meta_mean_motion_ddot": 0,
        "tle_line1": "1 66599U 25270M   25337.46131023  .00203832  00000+0  11537-2 0  9997",
        "tle_line2": "2 66599  42.9980 247.9123 0003826 352.3855   7.6956 15.77708270  2893"
      },
      "geometry": {
        "type": "Point",
        "coordinates": [
          114.10583823920447,
          -35.17589393881641
        ]
      }
    },
    {
      "type": "Feature",
      "properties": {
        "norad_id": 66600,
        "name": "STARLINK-35980",
        "group": "last-30-days",
        "lat": -34.70747124375954,
        "lon": 112.97646494314613,
        "alt_km": 346.0389310257224,
        "timestamp": "2025-12-03T22:42:31.476912+00:00",
        "meta_object_name": "STARLINK-35980",
        "meta_object_id": "2025-270N",
        "meta_epoch": "2025-12-03T08:00:01.999008",
        "meta_mean_motion": 15.77393237,
        "meta_eccentricity": 0.0001792,
        "meta_inclination": 42.9988,
        "meta_ra_of_asc_node": 248.6866,
        "meta_arg_of_pericenter": 269.4305,
        "meta_mean_anomaly": 85.3389,
        "meta_ephemeris_type": 0,
        "meta_classification_type": "U",
        "meta_norad_cat_id": 66600,
        "meta_element_set_no": 999,
        "meta_rev_at_epoch": 279,
        "meta_bstar": -0.011303,
        "meta_mean_motion_dot": -0.01704213,
        "meta_mean_motion_ddot": 0,
        "tle_line1": "1 66600U 25270N   25337.33335647 -.01704213  00000+0 -11303-1 0  9996",
        "tle_line2": "2 66600  42.9988 248.6866 0001792 269.4305  85.3389 15.77393237  2799"
      },
      "geometry": {
        "type": "Point",
        "coordinates": [
          112.97646494314613,
          -34.70747124375954
        ]
      }
    },
    {
      "type": "Feature",
      "properties": {
        "norad_id": 66601,
        "name": "STARLINK-35978",
        "group": "last-30-days",
        "lat": -36.617655633036456,
        "lon": 117.84806424000324,
        "alt_km": 341.7519110868716,
        "timestamp": "2025-12-03T22:42:31.476921+00:00",
        "meta_object_name": "STARLINK-35978",
        "meta_object_id": "2025-270P",
        "meta_epoch": "2025-12-03T11:03:16.825824",
        "meta_mean_motion": 15.77522655,
        "meta_eccentricity": 0.0003141,
        "meta_inclination": 42.998,
        "meta_ra_of_asc_node": 247.9074,
        "meta_arg_of_pericenter": 350.3691,
        "meta_mean_anomaly": 9.7118,
        "meta_ephemeris_type": 0,
        "meta_classification_type": "U",
        "meta_norad_cat_id": 66601,
        "meta_element_set_no": 999,
        "meta_rev_at_epoch": 273,
        "meta_bstar": -0.00080516,
        "meta_mean_motion_dot": -0.00136391,
        "meta_mean_motion_ddot": 0,
        "tle_line1": "1 66601U 25270P   25337.46061141 -.00136391  00000+0 -80516-3 0  9995",
        "tle_line2": "2 66601  42.9980 247.9074 0003141 350.3691   9.7118 15.77522655  2735"
      },
      "geometry": {
        "type": "Point",
        "coordinates": [
          117.84806424000324,
          -36.617655633036456
        ]
      }
    }
  ]
}